STARLINK-5369
1 54837U 22177T   26092.83335647  .00126085  00000+0  35116-2 0  9993
2 54837  43.0009 359.1477 0001513 264.4524  47.7335 15.35620030  5760
